[{"OBJECT_NAME":"STARLINK-4538","OBJECT_ID":"2022-097AU","EPOCH":"2026-03-09T21:22:51.438432","MEAN_MOTION":15.08837222,"ECCENTRICITY":0.00011952,"INCLINATION":53.2163,"RA_OF_ASC_NODE":103.2564,"ARG_OF_PERICENTER":78.151,"MEAN_ANOMALY":281.9616,"EPHEMERIS_TYPE":0,"CLASSIFICATION_TYPE":"U","NORAD_CAT_ID":53430,"ELEMENT_SET_NO":999,"REV_AT_EPOCH":19879,"BSTAR":1.098682e-6,"MEAN_MOTION_DOT":-2.7e-6,"MEAN_MOTION_DDOT":0},{"OBJECT_NAME":"SL-12 R\/B(AUX MOTOR)","OBJECT_ID":"1987-079G","EPOCH":"2026-03-09T19:10:20.749728","MEAN_MOTION":4.38776105,"ECCENTRICITY":0.57139715,"INCLINATION":65.0383,"RA_OF_ASC_NODE":304.8828,"ARG_OF_PERICENTER":351.016,"MEAN_ANOMALY":2.0927,"EPHEMERIS_TYPE":0,"CLASSIFICATION_TYPE":"U","NORAD_CAT_ID":18374,"ELEMENT_SET_NO":999,"REV_AT_EPOCH":60135,"BSTAR":0.00098347657,"MEAN_MOTION_DOT":1.329e-5,"MEAN_MOTION_DDOT":0}]
